NORAD_CAT_ID,OBJECT_NAME,OBJECT_TYPE,EPOCH,MEAN_MOTION,ECCENTRICITY,INCLINATION,RA_OF_ASC_NODE,ARG_OF_PERICENTER,MEAN_ANOMALY,BSTAR,MEAN_MOTION_DOT,MEAN_MOTION_DDOT,TLE_LINE0,TLE_LINE1,TLE_LINE2,SEMIMAJOR_AXIS,PERIOD,APOGEE,PERIGEE,DECAYED
54762.0,STARLINK-5214,PAYLOAD,2023-04-30 18:55:03,15.08837765,0.0001233,53.2177,50.4991,83.1756,276.9376,7.0174e-05,8.29e-06,0.0,0 STARLINK-5214,1 54762U 22175E   23120.78823248  .00000829  00000-0  70174-4 0  9993,2 54762  53.2177  50.4991 0001233  83.1756 276.9376 15.08837765 20167,6917.887,95.438,540.605,538.899,0.0
54762.0,STARLINK-5214,PAYLOAD,2023-05-01 04:27:22,15.08838031,0.0001116,53.2179,48.712,97.7411,262.3708,5.2087e-05,5.41e-06,0.0,0 STARLINK-5214,1 54762U 22175E   23121.18567385  .00000541  00000-0  52087-4 0  9999,2 54762  53.2179  48.7120 0001116  97.7411 262.3708 15.08838031 22383,6917.886,95.438,540.523,538.979,0.0
54762.0,STARLINK-5214,PAYLOAD,2023-05-01 23:31:59,15.08845992,0.0001081,53.2188,45.1448,96.9332,263.1783,0.00015444,2.171e-05,0.0,0 STARLINK-5214,1 54762U 22175E   23121.98055138  .00002171  00000-0  15444-3 0  9991,2 54762  53.2188  45.1448 0001081  96.9332 263.1783 15.08845992 20341,6917.862,95.437,540.475,538.979,0.0
54762.0,STARLINK-5214,PAYLOAD,2023-05-02 04:18:08,15.08850387,0.0001146,53.2181,44.252,97.9722,262.14,0.00026448,3.925e-05,0.0,0 STARLINK-5214,1 54762U 22175E   23122.17926908  .00003925  00000-0  26448-3 0  9999,2 54762  53.2181  44.2520 0001146  97.9722 262.1400 15.08850387 22533,6917.849,95.437,540.506,538.921,0.0
54762.0,STARLINK-5214,PAYLOAD,2023-05-02 21:47:23,15.08845627,0.000125,53.2176,40.9806,83.2747,276.8387,0.00016403,2.324e-05,0.0,0 STARLINK-5214,1 54762U 22175E   23122.90791120  .00002324  00000-0  16403-3 0  9998,2 54762  53.2176  40.9806 0001250  83.2747 276.8387 15.08845627 22647,6917.863,95.437,540.593,538.863,0.0
54762.0,STARLINK-5214,PAYLOAD,2023-05-03 04:08:55,15.08845919,0.0001171,53.2183,39.791,86.2642,273.8484,0.00013387,1.844e-05,0.0,0 STARLINK-5214,1 54762U 22175E   23123.17286992  .00001844  00000-0  13387-3 0  9998,2 54762  53.2183  39.7910 0001171  86.2642 273.8484 15.08845919 20520,6917.862,95.437,540.537,538.917,0.0
54762.0,STARLINK-5214,PAYLOAD,2023-05-03 21:38:10,15.08845852,0.0001118,53.2188,36.5235,82.5163,277.5957,-6.8631e-06,-3.97e-06,0.0,0 STARLINK-5214,1 54762U 22175E   23123.90151128 -.00000397  00000-0 -68631-5 0  9999,2 54762  53.2188  36.5235 0001118  82.5163 277.5957 15.08845852 22791,6917.863,95.437,540.501,538.954,0.0
54762.0,STARLINK-5214,PAYLOAD,2023-05-04 03:59:42,15.08849232,0.0001081,53.2189,35.3329,86.7321,273.3795,3.8985e-06,-2.26e-06,0.0,0 STARLINK-5214,1 54762U 22175E   23124.16646726 -.00000226  00000-0  38985-5 0  9990,2 54762  53.2189  35.3329 0001081  86.7321 273.3795 15.08849232 22839,6917.852,95.437,540.465,538.969,0.0
54762.0,STARLINK-5214,PAYLOAD,2023-05-04 21:28:57,15.08839429,0.0001204,53.2183,32.0588,108.3006,251.8117,-7.6105e-06,-4.09e-06,0.0,0 STARLINK-5214,1 54762U 22175E   23124.89511339 -.00000409  00000-0 -76105-5 0  9991,2 54762  53.2183  32.0588 0001204 108.3006 251.8117 15.08839429 22940,6917.882,95.438,540.58,538.914,0.0
54762.0,STARLINK-5214,PAYLOAD,2023-05-04 23:04:20,15.08839488,0.0001174,53.2185,31.7615,108.2922,251.8198,-7.7658e-06,-4.11e-06,0.0,0 STARLINK-5214,1 54762U 22175E   23124.96135329 -.00000411  00000-0 -77658-5 0  9997,2 54762  53.2185  31.7615 0001174 108.2922 251.8198 15.08839488 20796,6917.882,95.438,540.559,538.935,0.0
54762.0,STARLINK-5214,PAYLOAD,2023-05-05 21:19:45,15.0883474,9.29e-05,53.2189,27.6024,85.6408,274.4691,2.0221e-05,3.4e-07,0.0,0 STARLINK-5214,1 54762U 22175E   23125.88871920  .00000034  00000-0  20221-4 0  9995,2 54762  53.2189  27.6024 0000929  85.6408 274.4691 15.08834740 23093,6917.896,95.438,540.404,539.119,0.0
54762.0,STARLINK-5214,PAYLOAD,2023-05-06 00:30:31,15.08842534,8.15e-05,53.2179,27.0074,79.6074,280.501,7.1839e-05,8.56e-06,0.0,0 STARLINK-5214,1 54762U 22175E   23126.02119241  .00000856  00000-0  71839-4 0  9996,2 54762  53.2179  27.0074 0000815  79.6074 280.5010 15.08842534 20952,6917.873,95.437,540.301,539.174,0.0
54762.0,STARLINK-5214,PAYLOAD,2023-05-06 03:41:17,15.08845821,8.93e-05,53.2183,26.4122,85.6684,274.441,0.00010325,1.356e-05,0.0,0 STARLINK-5214,1 54762U 22175E   23126.15367061  .00001356  00000-0  10325-3 0  9993,2 54762  53.2183  26.4122 0000893  85.6684 274.4410 15.08845821 23135,6917.863,95.437,540.345,539.11,0.0
54762.0,STARLINK-5214,PAYLOAD,2023-05-07 01:56:40,15.08850656,7.21e-05,53.2178,22.2498,90.7618,269.3457,0.00015845,2.236e-05,0.0,0 STARLINK-5214,1 54762U 22175E   23127.08102738  .00002236  00000-0  15845-3 0  9994,2 54762  53.2178  22.2498 0000721  90.7618 269.3457 15.08850656 21115,6917.848,95.437,540.212,539.214,0.0
54762.0,STARLINK-5214,PAYLOAD,2023-05-07 21:01:20,15.08834738,8.67e-05,53.2175,18.6808,104.3844,255.7244,-1.9118e-05,-5.92e-06,0.0,0 STARLINK-5214,1 54762U 22175E   23127.87592618 -.00000592  00000-0 -19118-4 0  9994,2 54762  53.2175  18.6808 0000867 104.3844 255.7244 15.08834738 21239,6917.896,95.438,540.361,539.162,0.0
54762.0,STARLINK-5214,PAYLOAD,2023-05-08 20:52:06,15.08847942,8.54e-05,53.2176,14.2217,86.9601,273.1489,8.1482e-05,1.01e-05,0.0,0 STARLINK-5214,1 54762U 22175E   23128.86951792  .00001010  00000-0  81482-4 0  9993,2 54762  53.2176  14.2217 0000854  86.9601 273.1489 15.08847942 21380,6917.856,95.437,540.312,539.13,0.0
54762.0,STARLINK-5214,PAYLOAD,2023-05-08 22:27:29,15.08849966,8.88e-05,53.2175,13.9244,87.079,273.0304,0.00010791,1.431e-05,0.0,0 STARLINK-5214,1 54762U 22175E   23128.93575623  .00001431  00000-0  10791-3 0  9997,2 54762  53.2175  13.9244 0000888  87.0790 273.0304 15.08849966 23557,6917.85,95.437,540.329,539.101,0.0
54762.0,STARLINK-5214,PAYLOAD,2023-05-09 00:02:52,15.08850012,9.7e-05,53.2167,13.6273,84.5338,275.5765,0.00021594,3.151e-05,0.0,0 STARLINK-5214,1 54762U 22175E   23129.00199776  .00003151  00000-0  21594-3 0  9991,2 54762  53.2167  13.6273 0000970  84.5338 275.5765 15.08850012 23562,6917.85,95.437,540.386,539.044,0.0
54762.0,STARLINK-5214,PAYLOAD,2023-05-09 22:18:16,15.08847943,0.0001026,53.2174,9.4627,98.4854,261.6254,0.00022866,3.354e-05,0.0,0 STARLINK-5214,1 54762U 22175E   23129.92935867  .00003354  00000-0  22866-3 0  9999,2 54762  53.2174   9.4627 0001026  98.4854 261.6254 15.08847943 23700,6917.856,95.437,540.431,539.011,0.0
54762.0,STARLINK-5214,PAYLOAD,2023-05-10 18:58:17,15.08845915,9.28e-05,53.217,5.5975,96.5849,263.5249,9.8351e-05,1.278e-05,0.0,0 STARLINK-5214,1 54762U 22175E   23130.79047840  .00001278  00000-0  98351-4 0  9997,2 54762  53.2170   5.5975 0000928  96.5849 263.5249 15.08845915 21678,6917.862,95.437,540.369,539.085,0.0
54762.0,STARLINK-5214,PAYLOAD,2023-05-10 22:09:03,15.088495,0.000108,53.2172,5.0018,91.3448,268.7668,0.00012267,1.666e-05,0.0,0 STARLINK-5214,1 54762U 22175E   23130.92295634  .00001666  00000-0  12267-3 0  9990,2 54762  53.2172   5.0018 0001080  91.3448 268.7668 15.08849500 23859,6917.851,95.437,540.463,538.969,0.0
54762.0,STARLINK-5214,PAYLOAD,2023-05-11 21:59:51,15.08841389,9.77e-05,53.2173,0.5449,82.135,277.9753,-2.5298e-06,-3.28e-06,0.0,0 STARLINK-5214,1 54762U 22175E   23131.91656305 -.00000328  00000-0 -25298-5 0  9992,2 54762  53.2173   0.5449 0000977  82.1350 277.9753 15.08841389 21843,6917.876,95.437,540.417,539.065,0.0
54762.0,STARLINK-5214,PAYLOAD,2023-05-12 21:50:37,15.08853735,0.0001009,53.2166,356.0826,83.8571,276.2536,0.00025946,3.845e-05,0.0,0 STARLINK-5214,1 54762U 22175E   23132.91015763  .00003845  00000-0  25946-3 0  9993,2 54762  53.2166 356.0826 0001009  83.8571 276.2536 15.08853735 24159,6917.838,95.437,540.401,539.005,0.0
54762.0,STARLINK-5214,PAYLOAD,2023-05-13 01:01:23,15.08867087,9.62e-05,53.2172,355.4867,80.5976,279.5125,-8.1109e-05,-1.579e-05,0.0,0 STARLINK-5214,1 54762U 22175E   23133.04262924 -.00001579  00000-0 -81109-4 0  9999,2 54762  53.2172 355.4867 0000962  80.5976 279.5125 15.08867087 22012,6917.798,95.436,540.328,538.997,0.0
54762.0,STARLINK-5214,PAYLOAD,2023-05-13 21:41:25,15.08841306,0.0001142,53.2171,351.6238,81.7242,278.3879,0.00011935,1.612e-05,0.0,0 STARLINK-5214,1 54762U 22175E   23133.90376561  .00001612  00000-0  11935-3 0  9992,2 54762  53.2171 351.6238 0001142  81.7242 278.3879 15.08841306 24304,6917.876,95.437,540.531,538.951,0.0
54762.0,STARLINK-5214,PAYLOAD,2023-05-14 00:52:11,15.08845777,0.0001246,53.2176,351.0287,85.2183,274.8951,0.00019179,2.766e-05,0.0,0 STARLINK-5214,1 54762U 22175E   23134.03624387  .00002766  00000-0  19179-3 0  9998,2 54762  53.2176 351.0287 0001246  85.2183 274.8951 15.08845777 22165,6917.863,95.437,540.59,538.866,0.0
54762.0,STARLINK-5214,PAYLOAD,2023-05-14 21:32:12,15.08844864,0.0001113,53.2166,347.1635,102.7896,257.322,7.0836e-05,8.4e-06,0.0,0 STARLINK-5214,1 54762U 22175E   23134.89736404  .00000840  00000-0  70836-4 0  9995,2 54762  53.2166 347.1635 0001113 102.7896 257.3220 15.08844864 24451,6917.866,95.437,540.5,538.961,0.0
54762.0,STARLINK-5214,PAYLOAD,2023-05-15 13:26:03,15.08838592,0.0001151,53.2163,344.1901,89.8593,270.2531,8.7467e-05,1.104e-05,0.0,0 STARLINK-5214,1 54762U 22175E   23135.55976763  .00001104  00000-0  87467-4 0  9995,2 54762  53.2163 344.1901 0001151  89.8593 270.2531 15.08838592 22393,6917.885,95.438,540.546,538.953,0.0
54762.0,STARLINK-5214,PAYLOAD,2023-05-16 19:38:23,15.08845219,0.0001534,53.2179,338.5394,92.8105,267.3063,8.0573e-05,9.95e-06,0.0,0 STARLINK-5214,1 54762U 22175E   23136.81832580  .00000995  00000-0  80573-4 0  9991,2 54762  53.2179 338.5394 0001534  92.8105 267.3063 15.08845219 22583,6917.864,95.437,540.791,538.668,0.0
54762.0,STARLINK-5214,PAYLOAD,2023-05-17 05:10:42,15.08833052,0.0001061,53.2161,336.7533,85.774,274.3373,-5.1903e-05,-1.114e-05,0.0,0 STARLINK-5214,1 54762U 22175E   23137.21577469 -.00001114  00000-0 -51903-4 0  9999,2 54762  53.2161 336.7533 0001061  85.7740 274.3373 15.08833052 22641,6917.902,95.438,540.501,539.033,0.0
